DUBAISAT-1              
1 35682U 09041B   26032.95466395  .00001352  00000+0  20932-3 0  9997
2 35682  97.9822 167.8962 0011302 140.2817 219.9221 14.74791014885164
OCEANSAT-2              
1 35931U 09051A   26032.94699146 -.00000130  00000+0 -62845-4 0  9991
2 35931  98.2262  33.3623 0015516 258.8505 101.0917 13.99642116860413
WORLDVIEW-2 (WV-2)      
1 35946U 09055A   26032.88926541  .00000177  00000+0  73315-4 0  9999
2 35946  98.4736 108.2599 0002958 263.4485  96.6365 14.37823711856209
SMOS                    
1 36036U 09059A   26032.81071259  .00000375  00000+0  13361-3 0  9998
2 36036  98.4403 222.1083 0001271  88.4556 271.6778 14.39729486853976
YAOGAN-7                
1 36110U 09069A   26032.68243346  .00000726  00000+0  10779-3 0  9995
2 36110  98.0263 279.2492 0025882 114.7690 245.6217 14.77825981869618
TANDEM-X                
1 36605U 10030A   26032.56893204  .00001297  00000+0  64949-4 0  9998
2 36605  97.4454  42.2086 0001831  82.5509 277.5933 15.19151739866052
CARTOSAT-2B             
1 36795U 10035A   26033.00096775  .00000353  00000+0  54929-4 0  9990
2 36795  97.7781  85.3457 0010321 270.9663  89.0366 14.78725696839875
YAOGAN-10               
1 36834U 10038A   26032.99825064  .00001705  00000+0  20700-3 0  9996
2 36834  97.9106  57.4347 0001361  95.0416 351.9556 14.84857432837147
COSMO-SKYMED 4          
1 37216U 10060A   26032.95001709  .00001339  00000+0  17493-3 0  9992
2 37216  97.8825 218.5081 0001201  84.8822 275.2528 14.82108525824530
RESOURCESAT-2           
1 37387U 11015A   26032.88420191  .00000273  00000+0  14499-3 0  9993
2 37387  98.7790 101.1844 0004900 242.8345 117.2333 14.21460857766951
HAIYANG-2A              
1 37781U 11043A   26033.00759213 -.00000218  00000+0 -17094-3 0  9992
2 37781  99.3390  38.1567 0000819  16.9207 343.1972 13.78786826728051
RASAT                   
1 37791U 11044D   26032.96152784  .00000323  00000+0  64842-4 0  9997
2 37791  98.0605 126.4523 0019337 260.8271 194.8632 14.67999701773349
SRMSAT                  
1 37841U 11058D   26032.72218528  .00000441  00000+0  95445-4 0  9995
2 37841  19.9706 159.3934 0011689 152.9457 348.4078 14.11533340738657
PLEIADES 1A             
1 38012U 11076F   26032.92211345  .00000225  00000+0  58188-4 0  9991
2 38012  98.1752 109.8831 0001199 105.0841  10.4415 14.58566339752275
ZIYUAN 1-02C (ZY 1-02C) 
1 38038U 11079A   26032.97122747  .00000351  00000+0  13001-3 0  9998
2 38038  98.4256 103.0237 0006375   2.9904 100.2617 14.38083027739775
ARIRANG-3 (KOMPSAT-3)   
1 38338U 12025B   26032.94335965  .00000590  00000+0  12726-3 0  9996
2 38338  98.2014 352.7103 0006205 164.4288 195.7106 14.61941223731584
