[{"OBJECT_NAME":"DUBAISAT-1","OBJECT_ID":"2009-041B","EPOCH":"2026-02-01T22:54:42.965280","MEAN_MOTION":14.74791014,"ECCENTRICITY":0.00113023,"INCLINATION":97.9822,"RA_OF_ASC_NODE":167.8962,"ARG_OF_PERICENTER":140.2817,"MEAN_ANOMALY":219.9221,"EPHEMERIS_TYPE":0,"CLASSIFICATION_TYPE":"U","NORAD_CAT_ID":35682,"ELEMENT_SET_NO":999,"REV_AT_EPOCH":88516,"BSTAR":0.00020932157,"MEAN_MOTION_DOT":1.352e-5,"MEAN_MOTION_DDOT":0},{"OBJECT_NAME":"OCEANSAT-2","OBJECT_ID":"2009-051A","EPOCH":"2026-02-01T22:43:40.062144","MEAN_MOTION":13.99642116,"ECCENTRICITY":0.0015516,"INCLINATION":98.2262,"RA_OF_ASC_NODE":33.3623,"ARG_OF_PERICENTER":258.8505,"MEAN_ANOMALY":101.0917,"EPHEMERIS_TYPE":0,"CLASSIFICATION_TYPE":"U","NORAD_CAT_ID":35931,"ELEMENT_SET_NO":999,"REV_AT_EPOCH":86041,"BSTAR":-6.284513e-5,"MEAN_MOTION_DOT":-1.3e-6,"MEAN_MOTION_DDOT":0},{"OBJECT_NAME":"WORLDVIEW-2 (WV-2)","OBJECT_ID":"2009-055A","EPOCH":"2026-02-01T21:20:32.531424","MEAN_MOTION":14.37823711,"ECCENTRICITY":0.00029587,"INCLINATION":98.4736,"RA_OF_ASC_NODE":108.2599,"ARG_OF_PERICENTER":263.4485,"MEAN_ANOMALY":96.6365,"EPHEMERIS_TYPE":0,"CLASSIFICATION_TYPE":"U","NORAD_CAT_ID":35946,"ELEMENT_SET_NO":999,"REV_AT_EPOCH":85620,"BSTAR":7.3314671e-5,"MEAN_MOTION_DOT":1.77e-6,"MEAN_MOTION_DDOT":0},{"OBJECT_NAME":"SMOS","OBJECT_ID":"2009-059A","EPOCH":"2026-02-01T19:27:25.567776","MEAN_MOTION":14.39729486,"ECCENTRICITY":0.00012714,"INCLINATION":98.4403,"RA_OF_ASC_NODE":222.1083,"ARG_OF_PERICENTER":88.4556,"MEAN_ANOMALY":271.6778,"EPHEMERIS_TYPE":0,"CLASSIFICATION_TYPE":"U","NORAD_CAT_ID":36036,"ELEMENT_SET_NO":999,"REV_AT_EPOCH":85397,"BSTAR":0.00013361405,"MEAN_MOTION_DOT":3.75e-6,"MEAN_MOTION_DDOT":0},{"OBJECT_NAME":"YAOGAN-7","OBJECT_ID":"2009-069A","EPOCH":"2026-02-01T16:22:42.250944","MEAN_MOTION":14.77825981,"ECCENTRICITY":0.00258825,"INCLINATION":98.0263,"RA_OF_ASC_NODE":279.2492,"ARG_OF_PERICENTER":114.769,"MEAN_ANOMALY":245.6217,"EPHEMERIS_TYPE":0,"CLASSIFICATION_TYPE":"U","NORAD_CAT_ID":36110,"ELEMENT_SET_NO":999,"REV_AT_EPOCH":86961,"BSTAR":0.00010779323,"MEAN_MOTION_DOT":7.26e-6,"MEAN_MOTION_DDOT":0},{"OBJECT_NAME":"TANDEM-X","OBJECT_ID":"2010-030A","EPOCH":"2026-02-01T13:39:15.728256","MEAN_MOTION":15.19151739,"ECCENTRICITY":0.00018316,"INCLINATION":97.4454,"RA_OF_ASC_NODE":42.2086,"ARG_OF_PERICENTER":82.5509,"MEAN_ANOMALY":277.5933,"EPHEMERIS_TYPE":0,"CLASSIFICATION_TYPE":"U","NORAD_CAT_ID":36605,"ELEMENT_SET_NO":999,"REV_AT_EPOCH":86605,"BSTAR":6.4948506e-5,"MEAN_MOTION_DOT":1.297e-5,"MEAN_MOTION_DDOT":0},{"OBJECT_NAME":"CARTOSAT-2B","OBJECT_ID":"2010-035A","EPOCH":"2026-02-02T00:01:23.613600","MEAN_MOTION":14.78725696,"ECCENTRICITY":0.00103213,"INCLINATION":97.7781,"RA_OF_ASC_NODE":85.3457,"ARG_OF_PERICENTER":270.9663,"MEAN_ANOMALY":89.0366,"EPHEMERIS_TYPE":0,"CLASSIFICATION_TYPE":"U","NORAD_CAT_ID":36795,"ELEMENT_SET_NO":999,"REV_AT_EPOCH":83987,"BSTAR":5.4929399e-5,"MEAN_MOTION_DOT":3.53e-6,"MEAN_MOTION_DDOT":0},{"OBJECT_NAME":"YAOGAN-10","OBJECT_ID":"2010-038A","EPOCH":"2026-02-01T23:57:28.855296","MEAN_MOTION":14.84857432,"ECCENTRICITY":0.00013611,"INCLINATION":97.9106,"RA_OF_ASC_NODE":57.4347,"ARG_OF_PERICENTER":95.0416,"MEAN_ANOMALY":351.9556,"EPHEMERIS_TYPE":0,"CLASSIFICATION_TYPE":"U","NORAD_CAT_ID":36834,"ELEMENT_SET_NO":999,"REV_AT_EPOCH":83714,"BSTAR":0.00020700123,"MEAN_MOTION_DOT":1.705e-5,"MEAN_MOTION_DDOT":0},{"OBJECT_NAME":"COSMO-SKYMED 4","OBJECT_ID":"2010-060A","EPOCH":"2026-02-01T22:48:01.476576","MEAN_MOTION":14.82108525,"ECCENTRICITY":0.00012018,"INCLINATION":97.8825,"RA_OF_ASC_NODE":218.5081,"ARG_OF_PERICENTER":84.8822,"MEAN_ANOMALY":275.2528,"EPHEMERIS_TYPE":0,"CLASSIFICATION_TYPE":"U","NORAD_CAT_ID":37216,"ELEMENT_SET_NO":999,"REV_AT_EPOCH":82453,"BSTAR":0.00017493461,"MEAN_MOTION_DOT":1.339e-5,"MEAN_MOTION_DDOT":0},{"OBJECT_NAME":"RESOURCESAT-2","OBJECT_ID":"2011-015A","EPOCH":"2026-02-01T21:13:15.045024","MEAN_MOTION":14.21460857,"ECCENTRICITY":0.00049002,"INCLINATION":98.779,"RA_OF_ASC_NODE":101.1844,"ARG_OF_PERICENTER":242.8345,"MEAN_ANOMALY":117.2333,"EPHEMERIS_TYPE":0,"CLASSIFICATION_TYPE":"U","NORAD_CAT_ID":37387,"ELEMENT_SET_NO":999,"REV_AT_EPOCH":76695,"BSTAR":0.00014498718,"MEAN_MOTION_DOT":2.73e-6,"MEAN_MOTION_DDOT":0},{"OBJECT_NAME":"HAIYANG-2A","OBJECT_ID":"2011-043A","EPOCH":"2026-02-02T00:10:55.960032","MEAN_MOTION":13.78786826,"ECCENTRICITY":8.191e-5,"INCLINATION":99.339,"RA_OF_ASC_NODE":38.1567,"ARG_OF_PERICENTER":16.9207,"MEAN_ANOMALY":343.1972,"EPHEMERIS_TYPE":0,"CLASSIFICATION_TYPE":"U","NORAD_CAT_ID":37781,"ELEMENT_SET_NO":999,"REV_AT_EPOCH":72805,"BSTAR":-0.00017093783,"MEAN_MOTION_DOT":-2.18e-6,"MEAN_MOTION_DDOT":0},{"OBJECT_NAME":"RASAT","OBJECT_ID":"2011-044D","EPOCH":"2026-02-01T23:04:36.005376","MEAN_MOTION":14.67999701,"ECCENTRICITY":0.00193373,"INCLINATION":98.0605,"RA_OF_ASC_NODE":126.4523,"ARG_OF_PERICENTER":260.8271,"MEAN_ANOMALY":194.8632,"EPHEMERIS_TYPE":0,"CLASSIFICATION_TYPE":"U","NORAD_CAT_ID":37791,"ELEMENT_SET_NO":999,"REV_AT_EPOCH":77334,"BSTAR":6.4842321e-5,"MEAN_MOTION_DOT":3.23e-6,"MEAN_MOTION_DDOT":0},{"OBJECT_NAME":"SRMSAT","OBJECT_ID":"2011-058D","EPOCH":"2026-02-01T17:19:56.808192","MEAN_MOTION":14.1153334,"ECCENTRICITY":0.00116899,"INCLINATION":19.9706,"RA_OF_ASC_NODE":159.3934,"ARG_OF_PERICENTER":152.9457,"MEAN_ANOMALY":348.4078,"EPHEMERIS_TYPE":0,"CLASSIFICATION_TYPE":"U","NORAD_CAT_ID":37841,"ELEMENT_SET_NO":999,"REV_AT_EPOCH":73865,"BSTAR":9.5445275e-5,"MEAN_MOTION_DOT":4.41e-6,"MEAN_MOTION_DDOT":0},{"OBJECT_NAME":"PLEIADES 1A","OBJECT_ID":"2011-076F","EPOCH":"2026-02-01T22:07:50.602080","MEAN_MOTION":14.58566339,"ECCENTRICITY":0.00011993,"INCLINATION":98.1752,"RA_OF_ASC_NODE":109.8831,"ARG_OF_PERICENTER":105.0841,"MEAN_ANOMALY":10.4415,"EPHEMERIS_TYPE":0,"CLASSIFICATION_TYPE":"U","NORAD_CAT_ID":38012,"ELEMENT_SET_NO":999,"REV_AT_EPOCH":75227,"BSTAR":5.8187696e-5,"MEAN_MOTION_DOT":2.25e-6,"MEAN_MOTION_DDOT":0},{"OBJECT_NAME":"ZIYUAN 1-02C (ZY 1-02C)","OBJECT_ID":"2011-079A","EPOCH":"2026-02-01T23:18:34.053408","MEAN_MOTION":14.38083027,"ECCENTRICITY":0.00063757,"INCLINATION":98.4256,"RA_OF_ASC_NODE":103.0237,"ARG_OF_PERICENTER":2.9904,"MEAN_ANOMALY":100.2617,"EPHEMERIS_TYPE":0,"CLASSIFICATION_TYPE":"U","NORAD_CAT_ID":38038,"ELEMENT_SET_NO":999,"REV_AT_EPOCH":73977,"BSTAR":0.00013000843,"MEAN_MOTION_DOT":3.51e-6,"MEAN_MOTION_DDOT":0},{"OBJECT_NAME":"ARIRANG-3 (KOMPSAT-3)","OBJECT_ID":"2012-025B","EPOCH":"2026-02-01T22:38:26.273760","MEAN_MOTION":14.61941223,"ECCENTRICITY":0.00062051,"INCLINATION":98.2014,"RA_OF_ASC_NODE":352.7103,"ARG_OF_PERICENTER":164.4288,"MEAN_ANOMALY":195.7106,"EPHEMERIS_TYPE":0,"CLASSIFICATION_TYPE":"U","NORAD_CAT_ID":38338,"ELEMENT_SET_NO":999,"REV_AT_EPOCH":73158,"BSTAR":0.00012726228,"MEAN_MOTION_DOT":5.9e-6,"MEAN_MOTION_DDOT":0}]
